OBJECT_NAME,OBJECT_ID,EPOCH,MEAN_MOTION,ECCENTRICITY,INCLINATION,RA_OF_ASC_NODE,ARG_OF_PERICENTER,MEAN_ANOMALY,EPHEMERIS_TYPE,CLASSIFICATION_TYPE,NORAD_CAT_ID,ELEMENT_SET_NO,REV_AT_EPOCH,BSTAR,MEAN_MOTION_DOT,MEAN_MOTION_DDOT
SL-14 R/B,1990-018B,2026-07-20T18:21:54.587232,14.82236208,.0016609,82.5213,98.7239,19.2771,340.9068,0,U,20511,999,94229,.22039E-4,.2E-5,0
HST,1990-037B,2026-07-20T17:09:26.815680,15.31093862,.0002084,28.4721,211.3592,156.9288,203.1402,0,U,20580,999,79371,.10306E-3,.3416E-4,0
SL-16 R/B,1990-046B,2026-07-20T19:25:21.328896,14.15028317,.0012241,70.9996,18.3318,104.3978,255.8504,0,U,20625,999,86722,.16627E-3,.275E-5,0
COSMOS 2084,1990-055A,2026-07-20T20:30:29.314944,15.06235842,.0008803,62.7874,241.1678,323.2574,36.7922,0,U,20663,999,95637,.79161E-4,.964E-5,0
SL-6 R/B(2),1990-055D,2026-07-20T14:58:54.420672,15.04102023,.0045984,62.7810,161.5836,9.7412,350.4567,0,U,20666,999,95818,.96335E-4,.1161E-4,0
SL-8 R/B,1990-078B,2026-07-20T20:04:14.013120,14.93666533,.0342925,82.9031,131.2033,284.3082,72.0295,0,U,20775,999,82914,.23595E-3,.8326E-4,0
SL-8 R/B,1991-006B,2026-07-20T18:26:35.001888,13.77510014,.0023104,82.9402,71.0485,25.4426,46.0638,0,U,21088,999,78239,.54158E-4,.69E-6,0
OKEAN-3,1991-039A,2026-07-20T10:33:27.919872,15.05452780,.0012899,82.5150,208.1315,234.3620,125.6406,0,U,21397,999,88500,.11472622E-3,.1678E-4,0
COSMOS 2151,1991-042A,2026-07-20T19:16:43.030848,15.00522860,.0011444,82.4983,315.2393,335.8148,24.2537,0,U,21422,999,88315,.77536E-4,.1005E-4,0
SL-14 R/B,1991-042B,2026-07-20T18:41:39.111360,14.81919872,.0017465,82.4929,95.3951,158.8562,201.3378,0,U,21423,999,87278,.19746E-4,.18E-5,0
ERS-1,1991-050A,2026-07-20T19:21:05.768928,14.39536198,.003228,98.7797,223.3254,165.3291,194.8841,0,U,21574,999,83488,.86717E-4,.226E-5,0
ARIANE 40 R/B,1991-050F,2026-07-20T17:59:02.512032,14.42973643,.0003894,98.1858,248.8558,48.8705,311.2821,0,U,21610,999,83818,.45174E-4,.11E-5,0
INTERCOSMOS 25,1991-086A,2026-07-20T03:04:55.850016,12.12243073,.14848177,82.6000,229.8758,191.2811,165.1215,0,U,21819,999,51273,.10285997E-3,.538E-5,0
SL-8 R/B,1992-008B,2026-07-20T20:47:36.767328,13.75984841,.0035931,82.9278,168.7475,121.2399,300.5513,0,U,21876,999,72773,.11858E-3,.131E-5,0
SL-8 R/B,1992-020B,2026-07-20T20:49:22.495872,13.75549803,.0027796,82.9275,54.8352,286.9893,83.7914,0,U,21938,999,71944,-.29244E-4,-.13E-6,0
USA 81,1992-023A,2026-07-20T12:37:54.632928,14.32405784,.0001748,85.0047,54.7597,64.8666,295.2708,0,U,21949,999,11380,.25448E-4,.89E-6,0
COSMOS 2219,1992-076A,2026-07-20T20:40:34.579776,14.14106502,.001859,71.0607,99.6791,349.0355,11.0360,0,U,22219,999,73720,-.12461E-3,-.285E-5,0
SL-16 R/B,1992-076B,2026-07-20T10:17:28.127328,14.16877797,.0015039,70.9998,268.7569,255.5290,194.1594,0,U,22220,999,74063,-.60856E-4,-.17E-5,0
COSMOS 2221,1992-080A,2026-07-20T20:05:14.675424,14.96614209,.0015919,82.5051,151.5256,102.9810,257.3191,0,U,22236,999,80070,.88083E-4,.1032E-4,0
SL-16 R/B,1992-093B,2026-07-20T21:08:44.124000,14.15463686,.0002163,71.0212,84.6592,118.2594,241.8748,0,U,22285,999,73200,-.8887E-4,-.221E-5,0
COSMOS 2228,1992-094A,2026-07-20T19:52:58.313280,14.97686007,.0016738,82.5185,109.8193,208.9099,151.1198,0,U,22286,999,79598,.9002E-4,.1083E-4,0
SL-16 R/B,1993-016B,2026-07-20T17:21:38.138112,14.15315995,.0008561,71.0087,295.7699,128.0911,232.0985,0,U,22566,999,72099,.16585E-3,.276E-5,0
COSMOS 2242,1993-024A,2026-07-20T19:16:50.629728,14.96994581,.0015036,82.5202,139.3817,212.3320,147.6983,0,U,22626,999,80030,.7526E-4,.894E-5,0
SL-16 R/B,1993-059B,2026-07-20T20:59:05.568864,14.17250420,.0016987,70.9902,90.2645,0.0591,0.0532,0,U,22803,999,69840,.12581E-3,.206E-5,0
ARIANE 40 R/B,1993-061H,2026-07-20T19:01:21.548064,14.32919791,.0009623,98.4801,267.9489,247.1360,112.8809,0,U,22830,999,71316,.39189E-4,.64E-6,0
COSMOS 2278,1994-023A,2026-07-20T20:09:57.345120,14.14394918,.0009322,71.0516,256.5150,197.1860,162.8948,0,U,23087,999,66363,.12813E-3,.198E-5,0
SL-16 R/B,1994-023B,2026-07-20T14:45:26.850240,14.15027415,.0001271,70.9995,151.7300,106.2778,253.8484,0,U,23088,999,66489,.19194E-3,.324E-5,0
SL-16 R/B,1994-074B,2026-07-20T08:16:22.349568,14.79526813,.00075209,97.6985,226.6826,139.3222,231.4206,0,U,23343,999,70686,.3271689E-4,.196E-5,0
SL-16 R/B,1994-077B,2026-07-20T19:51:19.310976,14.15575649,.000417,70.9821,72.3901,299.1077,60.9628,0,U,23405,999,63507,.13539E-3,.217E-5,0
ARIANE 40+ R/B,1995-021B,2026-07-20T20:07:13.743264,14.39849600,.0007944,98.4396,271.4246,102.4185,14.5041,0,U,23561,999,63840,.58618E-4,.141E-5,0
SL-16 R/B,1995-058B,2026-07-20T10:00:02.042784,14.15511804,.00147014,71.0205,261.5926,276.1003,83.8445,0,U,23705,999,58663,.16476673E-3,.275E-5,0
